{
  "type": "FeatureCollection",
  "features": [
    {
      "type": "Feature",
      "properties": {
        "norad_id": 40894,
        "name": "GAOFEN-9 01",
        "group": "resource",
        "lat": 49.363053782650255,
        "lon": -144.36981822888475,
        "alt_km": 620.1837407614294,
        "timestamp": "2025-12-13T16:48:32.370657+00:00",
        "meta_object_name": "GAOFEN-9 01",
        "meta_object_id": "2015-047A",
        "meta_epoch": "2025-12-13T00:01:38.443296",
        "meta_mean_motion": 14.82423892,
        "meta_eccentricity": 0.00283611,
        "meta_inclination": 97.6546,
        "meta_ra_of_asc_node": 25.9453,
        "meta_arg_of_pericenter": 33.5082,
        "meta_mean_anomaly": 326.7919,
        "meta_ephemeris_type": 0,
        "meta_classification_type": "U",
        "meta_norad_cat_id": 40894,
        "meta_element_set_no": 999,
        "meta_rev_at_epoch": 55260,
        "meta_bstar": 0.00026418068,
        "meta_mean_motion_dot": 2.081e-05,
        "meta_mean_motion_ddot": 0,
        "tle_line1": "1 40894U 15047A   25347.00113939  .00002081  00000+0  26418-3 0  9993",
        "tle_line2": "2 40894  97.6546  25.9453 0028361  33.5082 326.7919 14.82423892552601"
      },
      "geometry": {
        "type": "Point",
        "coordinates": [
          -144.36981822888475,
          49.363053782650255
        ]
      }
    },
    {
      "type": "Feature",
      "properties": {
        "norad_id": 41026,
        "name": "YAOGAN-28",
        "group": "resource",
        "lat": 64.64284609086414,
        "lon": 109.81545218940282,
        "alt_km": 481.7311789769765,
        "timestamp": "2025-12-13T16:48:32.370667+00:00",
        "meta_object_name": "YAOGAN-28",
        "meta_object_id": "2015-064A",
        "meta_epoch": "2025-12-13T00:46:03.655200",
        "meta_mean_motion": 15.24360185,
        "meta_eccentricity": 0.00123998,
        "meta_inclination": 97.2802,
        "meta_ra_of_asc_node": 124.8157,
        "meta_arg_of_pericenter": 124.9963,
        "meta_mean_anomaly": 235.2441,
        "meta_ephemeris_type": 0,
        "meta_classification_type": "U",
        "meta_norad_cat_id": 41026,
        "meta_element_set_no": 999,
        "meta_rev_at_epoch": 56229,
        "meta_bstar": 0.00049464206,
        "meta_mean_motion_dot": 0.00012074,
        "meta_mean_motion_ddot": 0,
        "tle_line1": "1 41026U 15064A   25347.03198675  .00012074  00000+0  49464-3 0  9992",
        "tle_line2": "2 41026  97.2802 124.8157 0012399 124.9963 235.2441 15.24360185562299"
      },
      "geometry": {
        "type": "Point",
        "coordinates": [
          109.81545218940282,
          64.64284609086414
        ]
      }
    },
    {
      "type": "Feature",
      "properties": {
        "norad_id": 41038,
        "name": "YAOGAN-29",
        "group": "resource",
        "lat": 18.776327007027415,
        "lon": 8.126893131995782,
        "alt_km": 620.4761791571773,
        "timestamp": "2025-12-13T16:48:32.370677+00:00",
        "meta_object_name": "YAOGAN-29",
        "meta_object_id": "2015-069A",
        "meta_epoch": "2025-12-13T00:31:45.005952",
        "meta_mean_motion": 14.82882755,
        "meta_eccentricity": 1.72e-05,
        "meta_inclination": 98.0222,
        "meta_ra_of_asc_node": 10.1945,
        "meta_arg_of_pericenter": 314.4133,
        "meta_mean_anomaly": 45.7066,
        "meta_ephemeris_type": 0,
        "meta_classification_type": "U",
        "meta_norad_cat_id": 41038,
        "meta_element_set_no": 999,
        "meta_rev_at_epoch": 54303,
        "meta_bstar": 0.00012118115,
        "meta_mean_motion_dot": 9.28e-06,
        "meta_mean_motion_ddot": 0,
        "tle_line1": "1 41038U 15069A   25347.02204868  .00000928  00000+0  12118-3 0  9992",
        "tle_line2": "2 41038  98.0222  10.1945 0000172 314.4133  45.7066 14.82882755543033"
      },
      "geometry": {
        "type": "Point",
        "coordinates": [
          8.126893131995782,
          18.776327007027415
        ]
      }
    },
    {
      "type": "Feature",
      "properties": {
        "norad_id": 41167,
        "name": "KENT RIDGE 1",
        "group": "resource",
        "lat": 11.789765294269566,
        "lon": -104.65728351748649,
        "alt_km": 496.64212495485754,
        "timestamp": "2025-12-13T16:48:32.370687+00:00",
        "meta_object_name": "KENT RIDGE 1",
        "meta_object_id": "2015-077B",
        "meta_epoch": "2025-12-12T23:16:30.783072",
        "meta_mean_motion": 15.21639218,
        "meta_eccentricity": 0.00085187,
        "meta_inclination": 14.9786,
        "meta_ra_of_asc_node": 209.434,
        "meta_arg_of_pericenter": 133.9708,
        "meta_mean_anomaly": 226.1317,
        "meta_ephemeris_type": 0,
        "meta_classification_type": "U",
        "meta_norad_cat_id": 41167,
        "meta_element_set_no": 999,
        "meta_rev_at_epoch": 55267,
        "meta_bstar": 0.00025287461,
        "meta_mean_motion_dot": 6.651e-05,
        "meta_mean_motion_ddot": 0,
        "tle_line1": "1 41167U 15077B   25346.96980073  .00006651  00000+0  25287-3 0  9995",
        "tle_line2": "2 41167  14.9786 209.4340 0008518 133.9708 226.1317 15.21639218552676"
      },
      "geometry": {
        "type": "Point",
        "coordinates": [
          -104.65728351748649,
          11.789765294269566
        ]
      }
    },
    {
      "type": "Feature",
      "properties": {
        "norad_id": 41194,
        "name": "GAOFEN-4",
        "group": "resource",
        "lat": 0.017503773146865444,
        "lon": 80.4015915544479,
        "alt_km": 35790.92657499616,
        "timestamp": "2025-12-13T16:48:32.370700+00:00",
        "meta_object_name": "GAOFEN-4",
        "meta_object_id": "2015-083A",
        "meta_epoch": "2025-12-13T00:15:17.610336",
        "meta_mean_motion": 1.00269426,
        "meta_eccentricity": 0.00034395,
        "meta_inclination": 0.1712,
        "meta_ra_of_asc_node": 81.169,
        "meta_arg_of_pericenter": 105.5007,
        "meta_mean_anomaly": 4.7923,
        "meta_ephemeris_type": 0,
        "meta_classification_type": "U",
        "meta_norad_cat_id": 41194,
        "meta_element_set_no": 999,
        "meta_rev_at_epoch": 3666,
        "meta_bstar": 0,
        "meta_mean_motion_dot": -3.22e-06,
        "meta_mean_motion_ddot": 0,
        "tle_line1": "1 41194U 15083A   25347.01062049 -.00000322  00000+0  00000+0 0  9995",
        "tle_line2": "2 41194   0.1712  81.1690 0003439 105.5007   4.7923  1.00269426 36660"
      },
      "geometry": {
        "type": "Point",
        "coordinates": [
          80.4015915544479,
          0.017503773146865444
        ]
      }
    },
    {
      "type": "Feature",
      "properties": {
        "norad_id": 41240,
        "name": "JASON-3",
        "group": "resource",
        "lat": 65.33396880632462,
        "lon": -128.66592585124678,
        "alt_km": 1309.1661554141865,
        "timestamp": "2025-12-13T16:48:32.370711+00:00",
        "meta_object_name": "JASON-3",
        "meta_object_id": "2016-002A",
        "meta_epoch": "2025-12-12T23:35:50.506080",
        "meta_mean_motion": 12.87626524,
        "meta_eccentricity": 0.00071341,
        "meta_inclination": 66.039,
        "meta_ra_of_asc_node": 157.3122,
        "meta_arg_of_pericenter": 270.8442,
        "meta_mean_anomaly": 89.1759,
        "meta_ephemeris_type": 0,
        "meta_classification_type": "U",
        "meta_norad_cat_id": 41240,
        "meta_element_set_no": 999,
        "meta_rev_at_epoch": 46327,
        "meta_bstar": 0.00012748474,
        "meta_mean_motion_dot": -3e-07,
        "meta_mean_motion_ddot": 0,
        "tle_line1": "1 41240U 16002A   25346.98322345 -.00000030  00000+0  12748-3 0  9994",
        "tle_line2": "2 41240  66.0390 157.3122 0007134 270.8442  89.1759 12.87626524463274"
      },
      "geometry": {
        "type": "Point",
        "coordinates": [
          -128.66592585124678,
          65.33396880632462
        ]
      }
    },
    {
      "type": "Feature",
      "properties": {
        "norad_id": 41335,
        "name": "SENTINEL-3A",
        "group": "resource",
        "lat": -63.15432183634579,
        "lon": -144.76533390529735,
        "alt_km": 810.465302272637,
        "timestamp": "2025-12-13T16:48:32.370721+00:00",
        "meta_object_name": "SENTINEL-3A",
        "meta_object_id": "2016-011A",
        "meta_epoch": "2025-12-13T00:31:07.394304",
        "meta_mean_motion": 14.26730937,
        "meta_eccentricity": 9.523e-05,
        "meta_inclination": 98.6315,
        "meta_ra_of_asc_node": 52.0294,
        "meta_arg_of_pericenter": 91.1064,
        "meta_mean_anomaly": 269.0226,
        "meta_ephemeris_type": 0,
        "meta_classification_type": "U",
        "meta_norad_cat_id": 41335,
        "meta_element_set_no": 999,
        "meta_rev_at_epoch": 51151,
        "meta_bstar": 0.00012957783,
        "meta_mean_motion_dot": 2.7e-06,
        "meta_mean_motion_ddot": 0,
        "tle_line1": "1 41335U 16011A   25347.02161336  .00000270  00000+0  12958-3 0  9994",
        "tle_line2": "2 41335  98.6315  52.0294 0000952  91.1064 269.0226 14.26730937511511"
      },
      "geometry": {
        "type": "Point",
        "coordinates": [
          -144.76533390529735,
          -63.15432183634579
        ]
      }
    }
  ]
}